     2.100          NAVIGATION                              RINEX VERSION / TYPE
fic2rin                                 03/31/2015 00:37:03 PGM / RUN BY / DATE
                                                            END OF HEADER
11 15  3 30  8  0  0.0 -.567847397178D-03 -.261479726760D-11  .000000000000D+00
     .700000000000D+02 -.863125000000D+02  .612489798373D-08  .307996721487D+01
    -.455603003502D-05  .156535004498D-01  .680610537529D-05  .515373198318D+04
     .115200000000D+06  .242143869400D-06 -.127005833242D+01 -.147148966789D-06
     .892485692000D+00  .208937500000D+03  .139006423666D+01 -.859214361156D-08
    -.151434879299D-09  .100000000000D+01  .183800000000D+04  .000000000000D+00
     .240000000000D+01  .000000000000D+00 -.121071934700D-07  .700000000000D+02
     .108006000000D+06  .400000000000D+01
12 15  3 30  8  0  0.0  .280695967376D-03  .306954461848D-11  .000000000000D+00
     .810000000000D+02  .594375000000D+02  .380372986919D-08  .251700537092D+01
     .312924385071D-05  .546113459859D-02  .680796802044D-05  .515371465302D+04
     .115200000000D+06 -.484287738800D-07 -.297918599403D+01 -.102445483208D-06
     .989735871866D+00  .263000000000D+03  .542993471526D+00 -.781318259327D-08
     .404302555110D-09  .100000000000D+01  .183800000000D+04  .000000000000D+00
     .240000000000D+01  .000000000000D+00 -.125728547573D-07  .810000000000D+02
     .108006000000D+06  .400000000000D+01
13 15  3 30  8  0  0.0 -.101154204458D-03 -.341060513165D-11  .000000000000D+00
     .210000000000D+02 -.640625000000D+01  .433303763127D-08 -.251208791370D+01
    -.359490513802D-06  .531309470534D-02  .615604221821D-05  .515368104553D+04
     .115200000000D+06  .521540641785D-07  .127459680170D+01  .912696123123D-07
     .974396170780D+00  .269031250000D+03  .206736415744D+01 -.794068790438D-08
    -.345014371233D-09  .100000000000D+01  .183800000000D+04  .000000000000D+00
     .240000000000D+01  .000000000000D+00 -.116415321827D-07  .210000000000D+02
     .108006000000D+06  .400000000000D+01
14 15  3 30  8  0  0.0  .746753066778D-04 -.272848410532D-11  .000000000000D+00
     .820000000000D+02 -.768750000000D+01  .472698261209D-08 -.664522016009D+00
    -.372529029846D-06  .791171868332D-02  .558607280254D-05  .515356789970D+04
     .115200000000D+06 -.149011611938D-07  .124037242132D+01  .113621354103D-06
     .966910617925D+00  .276500000000D+03 -.197504262466D+01 -.835427656058D-08
    -.316441752498D-09  .100000000000D+01  .183800000000D+04  .000000000000D+00
     .240000000000D+01  .000000000000D+00 -.931322574615D-08  .820000000000D+02
     .108006000000D+06  .400000000000D+01
15 15  3 30  8  0  0.0 -.240622088313D-03 -.216004991671D-11  .000000000000D+00
     .550000000000D+02  .843750000000D+00  .534700843865D-08 -.129687640182D+01
     .298023223877D-07  .710996682756D-02  .517629086971D-05  .515360988617D+04
     .115200000000D+06  .102445483208D-06  .111811148739D+01 -.111758708954D-06
     .933633032283D+00  .265468750000D+03  .389601223929D+00 -.851035449042D-08
    -.201794119821D-09  .100000000000D+01  .183800000000D+04  .000000000000D+00
     .240000000000D+01  .000000000000D+00 -.107102096081D-07  .550000000000D+02
     .108006000000D+06  .400000000000D+01
16 15  3 30  8  0  0.0 -.143449753523D-03  .352429196937D-11  .000000000000D+00
     .630000000000D+02  .552812500000D+02  .386623247267D-08  .381124959544D+00
     .300258398056D-05  .822681328282D-02  .689364969730D-05  .515377172089D+04
     .115200000000D+06  .763684511185D-07 -.296053175506D+01  .745058059692D-07
     .990284520274D+00  .260843750000D+03  .262648204078D+00 -.792783022595D-08
     .347871633107D-09  .100000000000D+01  .183800000000D+04  .000000000000D+00
     .240000000000D+01  .000000000000D+00 -.102445483208D-07  .630000000000D+02
     .108006000000D+06  .400000000000D+01
17 15  3 30  8  0  0.0 -.163703225553D-03 -.193267624127D-11  .000000000000D+00
     .930000000000D+02 -.362812500000D+02  .466769442821D-08 -.530148489030D+00
    -.178441405296D-05  .101069156080D-01  .474601984024D-05  .515373805046D+04
     .115200000000D+06 -.102445483208D-06 -.193326335936D+01  .108033418655D-06
     .971533161102D+00  .297500000000D+03 -.201478939789D+01 -.838927801853D-08
    -.142863093678D-11  .100000000000D+01  .183800000000D+04  .000000000000D+00
     .240000000000D+01  .000000000000D+00 -.107102096081D-07  .930000000000D+02
     .108006000000D+06  .400000000000D+01
18 15  3 30  8  0  0.0  .390104949474D-03  .284217094304D-11  .000000000000D+00
     .170000000000D+02  .367500000000D+02  .555666002862D-08  .962886320469D+00
     .201724469662D-05  .159562374465D-01  .896304845810D-05  .515376786423D+04
     .115200000000D+06 -.225380063057D-06  .985881822964D-01  .633299350739D-07
     .925617249159D+00  .194375000000D+03 -.198025222369D+01 -.877893710654D-08
     .146791828755D-09  .100000000000D+01  .183800000000D+04  .000000000000D+00
     .240000000000D+01  .000000000000D+00 -.111758708954D-07  .170000000000D+02
     .108006000000D+06  .400000000000D+01
19 15  3 30  8  0  0.0 -.505668576807D-03 -.125055521494D-11  .000000000000D+00
     .370000000000D+02 -.475937500000D+02  .464519349095D-08 -.131366733227D+01
    -.251829624176D-05  .111461336492D-01  .394694507122D-05  .515370726395D+04
     .115200000000D+06  .238418579102D-06 -.188343794514D+01 -.145286321640D-06
     .968593968501D+00  .302562500000D+03  .525082494422D+00 -.821212778237D-08
     .282154610015D-10  .100000000000D+01  .183800000000D+04  .000000000000D+00
     .240000000000D+01  .000000000000D+00 -.149011611938D-07  .370000000000D+02
     .108006000000D+06  .400000000000D+01
20 15  3 30  8  0  0.0  .305004883558D-03  .397903932026D-11  .000000000000D+00
     .101000000000D+03  .360625000000D+02  .546344186000D-08  .100429870347D+00
     .209547579288D-05  .573779724073D-02  .836700201035D-05  .515577951622D+04
     .115200000000D+06 -.391155481339D-07  .460418999099D-01  .502914190292D-07
     .926802986687D+00  .198218750000D+03  .122290362291D+01 -.857107130524D-08
     .197508227010D-09  .100000000000D+01  .183800000000D+04  .000000000000D+00
     .240000000000D+01  .000000000000D+00 -.838190317154D-08  .101000000000D+03
     .108006000000D+06  .400000000000D+01
21 15  3 30  8  0  0.0 -.431507360190D-03 -.386535248253D-11  .000000000000D+00
     .410000000000D+02 -.780000000000D+02  .503770984084D-08  .202131134709D+01
    -.432506203651D-05  .224479341414D-01  .103954225779D-04  .515359802055D+04
     .115200000000D+06  .260770320892D-07 -.944746313299D+00 -.527128577232D-06
     .933636516954D+00  .165718750000D+03 -.192793572331D+01 -.808033657845D-08
    -.632169189527D-10  .100000000000D+01  .183800000000D+04  .000000000000D+00
     .340000000000D+01  .000000000000D+00 -.116415321827D-07  .410000000000D+02
     .108006000000D+06  .400000000000D+01
22 15  3 30  8  0  0.0  .334116630256D-03  .432009983342D-11  .000000000000D+00
     .950000000000D+02  .405625000000D+02  .559880464126D-08  .510777014976D+00
     .232458114624D-05  .769187614787D-02  .846758484840D-05  .515369525719D+04
     .115200000000D+06 -.316649675369D-07  .998686598620D-01  .335276126862D-07
     .923425081047D+00  .197406250000D+03 -.206088111163D+01 -.868607609565D-08
     .202151277555D-09  .100000000000D+01  .183800000000D+04  .000000000000D+00
     .240000000000D+01  .000000000000D+00 -.176951289177D-07  .950000000000D+02
     .108006000000D+06  .400000000000D+01
23 15  3 30  8  0  0.0 -.985064543784D-04 -.250111042988D-11  .000000000000D+00
     .113000000000D+03 -.818750000000D+01  .497520723735D-08 -.174068269924D+01
    -.579282641411D-06  .992089218926D-02  .508315861225D-05  .515363656044D+04
     .115200000000D+06  .186264514923D-07  .116947216391D+01 -.163912773132D-06
     .948745420769D+00  .273937500000D+03 -.270387025210D+01 -.826034407649D-08
    -.124290891500D-09  .100000000000D+01  .183800000000D+04  .000000000000D+00
     .240000000000D+01  .000000000000D+00 -.200234353542D-07  .113000000000D+03
     .108006000000D+06  .400000000000D+01
24 15  3 30  8  0  0.0 -.458173453808D-04 -.682121026330D-12  .000000000000D+00
     .137000000000D+03  .609375000000D+01  .435160983345D-08 -.247217764913D+01
     .299885869026D-06  .319050927646D-02  .100657343864D-04  .515368519211D+04
     .115200000000D+06 -.111758708954D-07  .219682174718D+01  .204890966415D-07
     .953925148480D+00  .183000000000D+03  .338446350723D+00 -.795926010656D-08
    -.198936857947D-09  .100000000000D+01  .183800000000D+04  .000000000000D+00
     .240000000000D+01  .000000000000D+00  .232830643654D-08  .137000000000D+03
     .108006000000D+06  .400000000000D+01
25 15  3 30  8  0  0.0 -.152266584337D-04 -.329691829393D-11  .000000000000D+00
     .109000000000D+03  .665937500000D+02  .411624288661D-08  .183209328611D+01
     .339560210705D-05  .442379782908D-02  .707805156708D-05  .515370479393D+04
     .115200000000D+06 -.987201929092D-07 -.302510781469D+01 -.931322574615D-08
     .978280421626D+00  .249687500000D+03  .679400736979D+00 -.802319134098D-08
     .376801409577D-09  .100000000000D+01  .183800000000D+04  .000000000000D+00
     .240000000000D+01  .000000000000D+00  .512227416039D-08  .109000000000D+03
     .108006000000D+06  .400000000000D+01
26 15  3 30  8  0  0.0 -.121071934700D-07  .000000000000D+00  .000000000000D+00
     .200000000000D+01  .675625000000D+02  .433839499728D-08  .117711117102D+01
     .353716313839D-05  .212811981328D-03  .665709376335D-05  .518126199913D+04
     .115200000000D+06 -.558793544769D-08 -.302696544709D+01  .745058059692D-08
     .960350392940D+00  .243250000000D+03  .161078646084D+01 -.795425989828D-08
     .386087510666D-09  .100000000000D+01  .183800000000D+04  .000000000000D+00
     .240000000000D+01  .630000000000D+02  .838190317154D-08  .200000000000D+01
     .108006000000D+06  .400000000000D+01
